STARLINK-35568          
1 66473U 25262T   26068.04707918  .00022400  00000+0  82087-3 0  9996
2 66473  42.9996 300.1837 0003217 239.9287 120.1246 15.27584830 18808
KUIPER-00226            
1 67785U 26030X   26068.62629313  .00046834  00000+0  15530-2 0  9998
2 67785  51.8814 220.1252 0017713  64.2781 296.0030 15.30655594  5078
