[{"OBJECT_NAME":"STARLINK-35568","OBJECT_ID":"2025-262T","EPOCH":"2026-03-09T01:07:47.641152","MEAN_MOTION":15.2758483,"ECCENTRICITY":0.00032171,"INCLINATION":42.9996,"RA_OF_ASC_NODE":300.1837,"ARG_OF_PERICENTER":239.9287,"MEAN_ANOMALY":120.1246,"EPHEMERIS_TYPE":0,"CLASSIFICATION_TYPE":"U","NORAD_CAT_ID":66473,"ELEMENT_SET_NO":999,"REV_AT_EPOCH":1880,"BSTAR":0.00082086586,"MEAN_MOTION_DOT":0.000224,"MEAN_MOTION_DDOT":0},{"OBJECT_NAME":"KUIPER-00226","OBJECT_ID":"2026-030X","EPOCH":"2026-03-09T15:01:51.726432","MEAN_MOTION":15.30655594,"ECCENTRICITY":0.0017713,"INCLINATION":51.8814,"RA_OF_ASC_NODE":220.1252,"ARG_OF_PERICENTER":64.2781,"MEAN_ANOMALY":296.003,"EPHEMERIS_TYPE":0,"CLASSIFICATION_TYPE":"U","NORAD_CAT_ID":67785,"ELEMENT_SET_NO":999,"REV_AT_EPOCH":507,"BSTAR":0.001553,"MEAN_MOTION_DOT":0.00046834,"MEAN_MOTION_DDOT":0}]
